[{"OBJECT_NAME":"SL-14 R/B","OBJECT_ID":"1986-006B","EPOCH":"2026-03-09T23:47:44.818080","MEAN_MOTION":14.8681534,"ECCENTRICITY":0.007505,"INCLINATION":82.5234,"RA_OF_ASC_NODE":259.4531,"ARG_OF_PERICENTER":271.7582,"MEAN_ANOMALY":87.504,"EPHEMERIS_TYPE":0,"CLASSIFICATION_TYPE":"U","NORAD_CAT_ID":16496,"ELEMENT_SET_NO":999,"REV_AT_EPOCH":14925,"BSTAR":8.3829779e-5,"MEAN_MOTION_DOT":8.11e-6,"MEAN_MOTION_DDOT":0},{"OBJECT_NAME":"COSMOS 1743","OBJECT_ID":"1986-034A","EPOCH":"2026-03-10T02:11:44.935584","MEAN_MOTION":15.58576552,"ECCENTRICITY":0.00016482,"INCLINATION":82.5297,"RA_OF_ASC_NODE":73.4092,"ARG_OF_PERICENTER":291.0253,"MEAN_ANOMALY":69.0827,"EPHEMERIS_TYPE":0,"CLASSIFICATION_TYPE":"U","NORAD_CAT_ID":16719,"ELEMENT_SET_NO":999,"REV_AT_EPOCH":18031,"BSTAR":0.00046990441,"MEAN_MOTION_DOT":0.0003609,"MEAN_MOTION_DDOT":0},{"OBJECT_NAME":"SL-14 R/B","OBJECT_ID":"1986-046B","EPOCH":"2026-03-10T01:50:30.957216","MEAN_MOTION":14.85590716,"ECCENTRICITY":0.00219983,"INCLINATION":82.4784,"RA_OF_ASC_NODE":79.816,"ARG_OF_PERICENTER":223.998,"MEAN_ANOMALY":135.9486,"EPHEMERIS_TYPE":0,"CLASSIFICATION_TYPE":"U","NORAD_CAT_ID":16792,"ELEMENT_SET_NO":999,"REV_AT_EPOCH":12646,"BSTAR":6.1966372e-5,"MEAN_MOTION_DOT":5.62e-6,"MEAN_MOTION_DDOT":0},{"OBJECT_NAME":"SL-14 R/B","OBJECT_ID":"1986-055B","EPOCH":"2026-03-10T03:12:37.653696","MEAN_MOTION":14.85643046,"ECCENTRICITY":0.00181527,"INCLINATION":82.5201,"RA_OF_ASC_NODE":126.2569,"ARG_OF_PERICENTER":334.9966,"MEAN_ANOMALY":54.8272,"EPHEMERIS_TYPE":0,"CLASSIFICATION_TYPE":"U","NORAD_CAT_ID":16882,"ELEMENT_SET_NO":999,"REV_AT_EPOCH":11943,"BSTAR":5.4743761e-5,"MEAN_MOTION_DOT":4.99e-6,"MEAN_MOTION_DDOT":0},{"OBJECT_NAME":"AJISAI (EGS)","OBJECT_ID":"1986-061A","EPOCH":"2026-03-10T06:45:57.831840","MEAN_MOTION":12.44515637,"ECCENTRICITY":0.00112705,"INCLINATION":50.0087,"RA_OF_ASC_NODE":91.5264,"ARG_OF_PERICENTER":288.5317,"MEAN_ANOMALY":159.9773,"EPHEMERIS_TYPE":0,"CLASSIFICATION_TYPE":"U","NORAD_CAT_ID":16908,"ELEMENT_SET_NO":999,"REV_AT_EPOCH":46807,"BSTAR":-1.6663163e-5,"MEAN_MOTION_DOT":-1.0e-6,"MEAN_MOTION_DDOT":0},{"OBJECT_NAME":"SL-14 R/B","OBJECT_ID":"1987-024B","EPOCH":"2026-03-10T02:38:24.597888","MEAN_MOTION":14.86132444,"ECCENTRICITY":0.0016687,"INCLINATION":82.5247,"RA_OF_ASC_NODE":92.3686,"ARG_OF_PERICENTER":258.3974,"MEAN_ANOMALY":101.5369,"EPHEMERIS_TYPE":0,"CLASSIFICATION_TYPE":"U","NORAD_CAT_ID":17567,"ELEMENT_SET_NO":999,"REV_AT_EPOCH":8819,"BSTAR":5.8787144e-5,"MEAN_MOTION_DOT":5.4e-6,"MEAN_MOTION_DDOT":0},{"OBJECT_NAME":"COSMOS 1833","OBJECT_ID":"1987-027A","EPOCH":"2026-03-10T03:26:32.791776","MEAN_MOTION":14.13054713,"ECCENTRICITY":0.00242498,"INCLINATION":70.9223,"RA_OF_ASC_NODE":325.0654,"ARG_OF_PERICENTER":213.9072,"MEAN_ANOMALY":146.05,"EPHEMERIS_TYPE":0,"CLASSIFICATION_TYPE":"U","NORAD_CAT_ID":17589,"ELEMENT_SET_NO":999,"REV_AT_EPOCH":1038,"BSTAR":-6.9431859e-5,"MEAN_MOTION_DOT":-1.78e-6,"MEAN_MOTION_DDOT":0},{"OBJECT_NAME":"SL-16 R/B","OBJECT_ID":"1987-027B","EPOCH":"2026-03-09T23:23:27.613824","MEAN_MOTION":14.17165848,"ECCENTRICITY":0.0003434,"INCLINATION":71.0012,"RA_OF_ASC_NODE":275.8951,"ARG_OF_PERICENTER":142.063,"MEAN_ANOMALY":218.0736,"EPHEMERIS_TYPE":0,"CLASSIFICATION_TYPE":"U","NORAD_CAT_ID":17590,"ELEMENT_SET_NO":999,"REV_AT_EPOCH":1538,"BSTAR":7.0274e-5,"MEAN_MOTION_DOT":9.4e-7,"MEAN_MOTION_DDOT":0},{"OBJECT_NAME":"SL-14 R/B","OBJECT_ID":"1987-038B","EPOCH":"2026-03-10T02:31:29.121888","MEAN_MOTION":14.8536967,"ECCENTRICITY":0.00197181,"INCLINATION":82.5,"RA_OF_ASC_NODE":296.4165,"ARG_OF_PERICENTER":159.1105,"MEAN_ANOMALY":201.0922,"EPHEMERIS_TYPE":0,"CLASSIFICATION_TYPE":"U","NORAD_CAT_ID":17912,"ELEMENT_SET_NO":999,"REV_AT_EPOCH":7929,"BSTAR":5.6876285e-5,"MEAN_MOTION_DOT":5.15e-6,"MEAN_MOTION_DDOT":0},{"OBJECT_NAME":"COSMOS 1844","OBJECT_ID":"1987-041A","EPOCH":"2026-03-10T05:58:19.795008","MEAN_MOTION":14.14552061,"ECCENTRICITY":0.00300534,"INCLINATION":70.9,"RA_OF_ASC_NODE":32.9951,"ARG_OF_PERICENTER":16.9095,"MEAN_ANOMALY":343.3021,"EPHEMERIS_TYPE":0,"CLASSIFICATION_TYPE":"U","NORAD_CAT_ID":17973,"ELEMENT_SET_NO":999,"REV_AT_EPOCH":366,"BSTAR":-5.4055715e-5,"MEAN_MOTION_DOT":-1.53e-6,"MEAN_MOTION_DDOT":0},{"OBJECT_NAME":"SL-14 R/B","OBJECT_ID":"1987-055B","EPOCH":"2026-03-10T05:12:07.633728","MEAN_MOTION":14.85630376,"ECCENTRICITY":0.00211201,"INCLINATION":82.5031,"RA_OF_ASC_NODE":348.5347,"ARG_OF_PERICENTER":16.0845,"MEAN_ANOMALY":344.1037,"EPHEMERIS_TYPE":0,"CLASSIFICATION_TYPE":"U","NORAD_CAT_ID":18153,"ELEMENT_SET_NO":999,"REV_AT_EPOCH":7001,"BSTAR":7.7508186e-5,"MEAN_MOTION_DOT":6.98e-6,"MEAN_MOTION_DDOT":0},{"OBJECT_NAME":"COSMOS 1867","OBJECT_ID":"1987-060A","EPOCH":"2026-03-10T01:40:50.183328","MEAN_MOTION":14.31503117,"ECCENTRICITY":0.00144912,"INCLINATION":65.0112,"RA_OF_ASC_NODE":305.6406,"ARG_OF_PERICENTER":278.6825,"MEAN_ANOMALY":81.2618,"EPHEMERIS_TYPE":0,"CLASSIFICATION_TYPE":"U","NORAD_CAT_ID":18187,"ELEMENT_SET_NO":999,"REV_AT_EPOCH":1999,"BSTAR":3.5470246e-5,"MEAN_MOTION_DOT":-6.0e-8,"MEAN_MOTION_DDOT":0},{"OBJECT_NAME":"SL-14 R/B","OBJECT_ID":"1988-001B","EPOCH":"2026-03-10T06:42:25.107264","MEAN_MOTION":14.85528783,"ECCENTRICITY":0.0016884,"INCLINATION":82.5154,"RA_OF_ASC_NODE":194.8055,"ARG_OF_PERICENTER":233.6625,"MEAN_ANOMALY":126.3034,"EPHEMERIS_TYPE":0,"CLASSIFICATION_TYPE":"U","NORAD_CAT_ID":18749,"ELEMENT_SET_NO":999,"REV_AT_EPOCH":4211,"BSTAR":8.3989981e-5,"MEAN_MOTION_DOT":7.51e-6,"MEAN_MOTION_DDOT":0},{"OBJECT_NAME":"COSMOS 1933","OBJECT_ID":"1988-020A","EPOCH":"2026-03-09T23:42:32.310144","MEAN_MOTION":15.17985258,"ECCENTRICITY":0.00038896,"INCLINATION":82.5099,"RA_OF_ASC_NODE":250.6165,"ARG_OF_PERICENTER":179.4011,"MEAN_ANOMALY":180.7228,"EPHEMERIS_TYPE":0,"CLASSIFICATION_TYPE":"U","NORAD_CAT_ID":18958,"ELEMENT_SET_NO":999,"REV_AT_EPOCH":5027,"BSTAR":0.00026704406,"MEAN_MOTION_DOT":5.456e-5,"MEAN_MOTION_DDOT":0},{"OBJECT_NAME":"SL-3 R/B","OBJECT_ID":"1988-032B","EPOCH":"2026-03-10T06:13:18.074208","MEAN_MOTION":15.19918694,"ECCENTRICITY":0.00244646,"INCLINATION":97.5196,"RA_OF_ASC_NODE":52.5081,"ARG_OF_PERICENTER":229.3517,"MEAN_ANOMALY":130.5591,"EPHEMERIS_TYPE":0,"CLASSIFICATION_TYPE":"U","NORAD_CAT_ID":19046,"ELEMENT_SET_NO":999,"REV_AT_EPOCH":5219,"BSTAR":0.00030423833,"MEAN_MOTION_DOT":6.519e-5,"MEAN_MOTION_DDOT":0},{"OBJECT_NAME":"SL-16 R/B","OBJECT_ID":"1988-039B","EPOCH":"2026-03-10T06:17:30.358752","MEAN_MOTION":14.19615424,"ECCENTRICITY":0.00228223,"INCLINATION":71.0134,"RA_OF_ASC_NODE":67.3368,"ARG_OF_PERICENTER":333.5129,"MEAN_ANOMALY":26.4828,"EPHEMERIS_TYPE":0,"CLASSIFICATION_TYPE":"U","NORAD_CAT_ID":19120,"ELEMENT_SET_NO":999,"REV_AT_EPOCH":95846,"BSTAR":2.008763e-6,"MEAN_MOTION_DOT":-4.4e-7,"MEAN_MOTION_DDOT":0},{"OBJECT_NAME":"COSMOS 1953","OBJECT_ID":"1988-050A","EPOCH":"2026-03-10T06:43:35.853312","MEAN_MOTION":15.28540132,"ECCENTRICITY":0.00124761,"INCLINATION":82.5103,"RA_OF_ASC_NODE":157.6532,"ARG_OF_PERICENTER":120.541,"MEAN_ANOMALY":239.7063,"EPHEMERIS_TYPE":0,"CLASSIFICATION_TYPE":"U","NORAD_CAT_ID":19210,"ELEMENT_SET_NO":999,"REV_AT_EPOCH":3787,"BSTAR":0.000353061,"MEAN_MOTION_DOT":9.858e-5,"MEAN_MOTION_DDOT":0}]
